COSMOS 2532 (RODNIK-S *)
1 43753U 18097C   26188.63164797  .00000016  00000+0  45005-4 0  9999
2 43753  82.5113 209.4345 0018369  17.1725 342.9973 12.42910391344810
MINXSS-2                
1 43758U 18099A   26188.58858381  .00026352  00000+0  49743-3 0  9992
2 43758  97.4520 265.4904 0008170 183.9263 176.1925 15.48404393417288
SIRION PATHFINDER-2     
1 43759U 18099B   26187.67083207  .00004650  00000+0  25427-3 0  9999
2 43759  97.4242 236.2659 0007650 223.3987 136.6643 15.14731584415573
AISTECHSAT 2            
1 43768U 18099L   26188.09449707  .00004140  00000+0  22105-3 0  9991
2 43768  97.4282 235.6938 0003823 210.5456 149.5555 15.15659206415292
FOX-1CLIFF (AO-95)      
1 43770U 18099N   26188.13093529  .00008409  00000+0  31834-3 0  9997
2 43770  97.4372 248.3079 0006930 274.3916  85.6531 15.27157172416263
RANGE-A                 
1 43773U 18099R   26188.07871978  .00003382  00000+0  19204-3 0  9997
2 43773  97.3953 230.0765 0008532 278.5374  81.4890 15.13562801415506
SNUSAT-2                
1 43782U 18099AA  26187.13669278  .00007931  00000+0  34843-3 0  9991
2 43782  97.4045 240.2314 0009271 220.8240 139.2302 15.22146277415915
SNUGLITE                
1 43784U 18099AC  26188.38723721  .00007698  00000+0  28759-3 0  9994
2 43784  97.3855 242.4724 0002848 181.7466 178.3764 15.27641653416406
ITASAT                  
1 43786U 18099AE  26187.71598030  .00004636  00000+0  22248-3 0  9991
2 43786  97.4015 238.8395 0010723 284.8338  75.1709 15.19312324415878
EAGLET-I                
1 43790U 18099AJ  26188.09181512  .00003415  00000+0  19641-3 0  9998
2 43790  97.4217 237.2336 0009460 277.0289  82.9866 15.13093880415349
ESEO                    
1 43792U 18099AL  26188.06950327  .00001045  00000+0  79122-4 0  9993
2 43792  97.3953 224.6062 0010444 265.2628  94.7406 15.04301633414790
THEA                    
1 43796U 18099AQ  26188.14535810  .00014579  00000+0  42112-3 0  9996
2 43796  97.4430 258.0402 0007262 202.0970 157.9961 15.35738953415755
ASTROCAST 0.1           
1 43798U 18099AS  26187.81992038  .00031413  00000+0  54110-3 0  9997
2 43798  97.4362 266.9470 0005630 150.9433 209.2133 15.50999199417477
JY1SAT (JO-97)          
1 43803U 18099AX  26186.62217810  .00022572  00000+0  68069-3 0  9994
2 43803  97.4115 249.5264 0005983 188.7802 171.3337 15.34293802416450
SUOMI-100               
1 43804U 18099AY  26187.71332519  .00010073  00000+0  36097-3 0  9999
2 43804  97.4172 248.0387 0009759 201.8344 158.2482 15.28892213416401
CENTAURI-1              
1 43809U 18099BD  26188.00156065  .00003787  00000+0  19708-3 0  9991
2 43809  97.4209 239.2968 0012443 256.6272 103.3574 15.16571569415504
GLOBAL-2                
1 43812U 18099BG  26188.17070325  .00002583  00000+0  16805-3 0  9995
2 43812  97.3550 223.8530 0007642  88.6043 271.6062 15.08797230414926
SEAHAWK-1               
1 43820U 18099BQ  26188.11014554  .00006395  00000+0  27354-3 0  9996
2 43820  97.3943 240.2946 0007081 229.4452 130.6169 15.23149521415565
SAUDISAT 5A             
1 43831U 18102A   26188.59482757  .00003849  00000+0  14223-3 0  9991
2 43831  97.3055 249.7838 0010996  67.4563 292.7839 15.28268223418795
SAUDISAT 5B             
1 43833U 18102C   26188.61031338  .00003591  00000+0  13186-3 0  9992
2 43833  97.3164 252.9057 0011750  68.9613 291.2883 15.28514154418912
ISAT                    
1 43879U 18111D   26187.38249468  .00122128  00000+0  10353-2 0  9990
2 43879  97.5857 124.1319 0006096 154.8857 205.2702 15.69277378414174
UWE-4                   
1 43880U 18111E   26188.27026786  .00025394  00000+0  49609-3 0  9991
2 43880  97.5838 117.6044 0004892 228.1890 131.8942 15.47445667413882
D-STAR ONE (SPARROW)    
1 43881U 18111F   26187.35064001  .00253896  00000+0  12434-2 0  9997
2 43881  97.6088 130.1042 0006640 143.8702 216.3016 15.81562619414390
JILIN-1 09              
1 43943U 19005B   26188.57971685  .00002978  00000+0  13865-3 0  9992
2 43943  97.4739 283.3708 0002941  52.7182 307.4321 15.20698009412249
JILIN-1 10              
1 43946U 19005E   26188.58761408  .00004111  00000+0  16290-3 0  9992
2 43946  97.4789 287.3954 0007816 196.1036 163.9955 15.25950487412425
EGYPTSAT-A (MISRSAT-A)  
1 44047U 19008A   26188.59951395  .00000524  00000+0  90628-4 0  9997
2 44047  98.0179 253.0870 0001649  95.4954 264.6441 14.72331721396248
EMISAT                  
1 44078U 19018A   26188.59044272  .00000348  00000+0  11532-3 0  9999
2 44078  98.4631 247.2779 0018894 153.1352 207.0820 14.43648104383002
JILIN-1 GAOFEN 3A       
1 44312U 19032C   26188.61340628  .00007143  00000+0  22850-3 0  9998
2 44312  44.9744 244.4826 0004740  49.6444 310.4855 15.33090513390978
WT 1B                   
1 44316U 19032G   26188.60512631  .00008418  00000+0  31615-3 0  9991
2 44316  44.9721 309.4574 0009228 351.6893   8.3835 15.27618087390201
