OBJECT_NAME,OBJECT_ID,EPOCH,MEAN_MOTION,ECCENTRICITY,INCLINATION,RA_OF_ASC_NODE,ARG_OF_PERICENTER,MEAN_ANOMALY,EPHEMERIS_TYPE,CLASSIFICATION_TYPE,NORAD_CAT_ID,ELEMENT_SET_NO,REV_AT_EPOCH,BSTAR,MEAN_MOTION_DOT,MEAN_MOTION_DDOT
COSMOS 2532 (RODNIK-S 18),2018-097C,2026-07-07T15:09:34.384608,12.42910391,.00183695,82.5113,209.4345,17.1725,342.9973,0,U,43753,999,34481,.45004581E-4,.16E-6,0
MINXSS-2,2018-099A,2026-07-07T14:07:33.641184,15.48404393,.00081708,97.4520,265.4904,183.9263,176.1925,0,U,43758,999,41728,.49743447E-3,.26352E-3,0
SIRION PATHFINDER-2,2018-099B,2026-07-06T16:05:59.890848,15.14731584,.00076501,97.4242,236.2659,223.3987,136.6643,0,U,43759,999,41557,.2542707E-3,.465E-4,0
AISTECHSAT 2,2018-099L,2026-07-07T02:16:04.546848,15.15659206,.00038232,97.4282,235.6938,210.5456,149.5555,0,U,43768,999,41529,.22105128E-3,.414E-4,0
FOX-1CLIFF (AO-95),2018-099N,2026-07-07T03:08:32.809056,15.27157172,.000693,97.4372,248.3079,274.3916,85.6531,0,U,43770,999,41626,.31833501E-3,.8409E-4,0
RANGE-A,2018-099R,2026-07-07T01:53:21.388992,15.13562801,.00085322,97.3953,230.0765,278.5374,81.4890,0,U,43773,999,41550,.19204364E-3,.3382E-4,0
SNUSAT-2,2018-099AA,2026-07-06T03:16:50.256192,15.22146277,.0009271,97.4045,240.2314,220.8240,139.2302,0,U,43782,999,41591,.34843E-3,.7931E-4,0
SNUGLITE,2018-099AC,2026-07-07T09:17:37.294944,15.27641653,.00028487,97.3855,242.4724,181.7466,178.3764,0,U,43784,999,41640,.28758939E-3,.7698E-4,0
ITASAT,2018-099AE,2026-07-06T17:11:00.697920,15.19312324,.00107233,97.4015,238.8395,284.8338,75.1709,0,U,43786,999,41587,.22247843E-3,.4636E-4,0
EAGLET-I,2018-099AJ,2026-07-07T02:12:12.826368,15.13093880,.00094605,97.4217,237.2336,277.0289,82.9866,0,U,43790,999,41534,.19640543E-3,.3415E-4,0
ESEO,2018-099AL,2026-07-07T01:40:05.082528,15.04301633,.00104445,97.3953,224.6062,265.2628,94.7406,0,U,43792,999,41479,.7912169E-4,.1045E-4,0
THEA,2018-099AQ,2026-07-07T03:29:18.939840,15.35738953,.00072625,97.4430,258.0402,202.0970,157.9961,0,U,43796,999,41575,.42112259E-3,.14579E-3,0
ASTROCAST 0.1,2018-099AS,2026-07-06T19:40:41.120832,15.50999199,.00056305,97.4362,266.9470,150.9433,209.2133,0,U,43798,999,41747,.54110478E-3,.31413E-3,0
JY1SAT (JO-97),2018-099AX,2026-07-05T14:55:56.187840,15.34293802,.00059834,97.4115,249.5264,188.7802,171.3337,0,U,43803,999,41645,.68069126E-3,.22572E-3,0
SUOMI-100,2018-099AY,2026-07-06T17:07:11.296416,15.28892213,.0009759,97.4172,248.0387,201.8344,158.2482,0,U,43804,999,41640,.36096631E-3,.10073E-3,0
CENTAURI-1,2018-099BD,2026-07-07T00:02:14.840160,15.16571569,.00124438,97.4209,239.2968,256.6272,103.3574,0,U,43809,999,41550,.19708266E-3,.3787E-4,0
GLOBAL-2,2018-099BG,2026-07-07T04:05:48.760800,15.08797230,.00076423,97.3550,223.8530,88.6043,271.6062,0,U,43812,999,41492,.16804796E-3,.2583E-4,0
SEAHAWK-1,2018-099BQ,2026-07-07T02:38:36.574656,15.23149521,.0007081,97.3943,240.2946,229.4452,130.6169,0,U,43820,999,41556,.27354419E-3,.6395E-4,0
SAUDISAT 5A,2018-102A,2026-07-07T14:16:33.102048,15.28268223,.00109964,97.3055,249.7838,67.4563,292.7839,0,U,43831,999,41879,.14222989E-3,.3849E-4,0
SAUDISAT 5B,2018-102C,2026-07-07T14:38:51.076032,15.28514154,.00117503,97.3164,252.9057,68.9613,291.2883,0,U,43833,999,41891,.13186209E-3,.3591E-4,0
ISAT,2018-111D,2026-07-06T09:10:47.540352,15.69277378,.00060962,97.5857,124.1319,154.8857,205.2702,0,U,43879,999,41417,.10352845E-2,.122128E-2,0
UWE-4,2018-111E,2026-07-07T06:29:11.143104,15.47445667,.00048923,97.5838,117.6044,228.1890,131.8942,0,U,43880,999,41388,.4960896E-3,.25394E-3,0
D-STAR ONE (SPARROW),2018-111F,2026-07-06T08:24:55.296864,15.81562619,.00066406,97.6088,130.1042,143.8702,216.3016,0,U,43881,999,41439,.1243357E-2,.253896E-2,0
JILIN-1 09,2019-005B,2026-07-07T13:54:47.535840,15.20698009,.0002941,97.4739,283.3708,52.7182,307.4321,0,U,43943,999,41224,.13865039E-3,.2978E-4,0
JILIN-1 10,2019-005E,2026-07-07T14:06:09.856512,15.25950487,.00078168,97.4789,287.3954,196.1036,163.9955,0,U,43946,999,41242,.1629018E-3,.4111E-4,0
EGYPTSAT-A (MISRSAT-A),2019-008A,2026-07-07T14:23:18.005280,14.72331721,.00016493,98.0179,253.0870,95.4954,264.6441,0,U,44047,999,39624,.90627905E-4,.524E-5,0
EMISAT,2019-018A,2026-07-07T14:10:14.251008,14.43648104,.00188942,98.4631,247.2779,153.1352,207.0820,0,U,44078,999,38300,.11532173E-3,.348E-5,0
JILIN-1 GAOFEN 3A,2019-032C,2026-07-07T14:43:18.302592,15.33090513,.000474,44.9744,244.4826,49.6444,310.4855,0,U,44312,999,39097,.22849888E-3,.7143E-4,0
WT 1B,2019-032G,2026-07-07T14:31:22.913184,15.27618087,.00092281,44.9721,309.4574,351.6893,8.3835,0,U,44316,999,39020,.31614727E-3,.8418E-4,0
